COSMOS 2404 (701)       
1 28112U 03056A   08269.43337115  .00000013  00000-0  10000-3 0  3969
2 28112  64.1367 292.0477 0041743 103.2802  45.4649  2.13104604 37305
COSMOS 2403 (795)       
1 28114U 03056C   08268.62772503  .00000017  00000-0  10000-3 0  3420
2 28114  64.1521 292.1003 0035728  82.6850 264.3023  2.13104565 37285
COSMOS 2411 (796)       
1 28508U 04053A   08269.60184890  .00000013  00000-0  10000-3 0   568
2 28508  64.0283 290.9097 0011513 169.1476 336.2322  2.13103805 29172
COSMOS 2413 (712)       
1 28509U 04053B   08268.81743770  .00000018  00000-0  10000-3 0   553
2 28509  64.0232 290.9095 0007019 178.1174 171.9894  2.13102864 29156
COSMOS 2419 (714)       
1 28915U 05050A   08268.84119106 -.00000024  00000-0  10000-3 0  7864
2 28915  64.8627 172.5565 0008434 335.9090  60.5087  2.13101953 21418
COSMOS 2418 (713)       
1 28916U 05050B   08268.89553727 -.00000024  00000-0  10000-3 0  7771
2 28916  64.8815 172.5807 0019887 335.0810  55.3259  2.13103640 21410
COSMOS 2425 (716)       
1 29670U 06062A   08269.67106740 -.00000013  00000-0  10000-3 0  5056
2 29670  65.2173  51.9365 0022485 355.7211 305.1239  2.13103383 13623
COSMOS 2426 (717)       
1 29671U 06062B   08269.58260920 -.00000012  00000-0  10000-3 0  5125
2 29671  65.2336  51.9628 0020617 165.4985 293.2928  2.13103738 13633
COSMOS 2424 (715)       
1 29672U 06062C   08268.93943492 -.00000006  00000-0  10000-3 0  5286
2 29672  65.2187  51.9646 0018148 163.6583 341.8563  2.13103827 13610
COSMOS 2433 (720)       
1 32275U 07052A   08269.75651837 -.00000019  00000-0  00000+0 0  2500
2 32275  64.8743 172.2639 0002193 262.6696 297.2240  2.13089643  7149
COSMOS 2432 (719)       
1 32276U 07052B   08269.34412684 -.00000021  00000-0  00000+0 0  2379
2 32276  64.8887 172.2935 0015255 337.8656 220.4772  2.13102267  7137
COSMOS 2431 (718)       
1 32277U 07052C   08268.93701991 -.00000023  00000-0  00000-0 0  2469
2 32277  64.8911 172.3007 0018382 192.5868 188.6504  2.13102412  7211
COSMOS 2434 (721)       
1 32393U 07065A   08269.16270884 -.00000007  00000-0  00000+0 0  1538
2 32393  64.8340  52.6076 0006751 124.5070 235.5619  2.13103400  5843
COSMOS 2435 (722)       
1 32394U 07065B   08269.39689737 -.00000009  00000-0  00000+0 0  1582
2 32394  64.8345  52.6021 0004266 100.9542 259.0988  2.13103458  5786
COSMOS 2436 (723)       
1 32395U 07065C   08269.51389992 -.00000011  00000-0  10000-3 0  1675
2 32395  64.8480  52.5936 0017134   1.6030 358.4052  2.13103627  5782
